[{"OBJECT_NAME":"KUIPER-00223","OBJECT_ID":"2026-030V","EPOCH":"2026-03-07T13:43:07.970592","MEAN_MOTION":15.3402975,"ECCENTRICITY":0.00126582,"INCLINATION":51.8838,"RA_OF_ASC_NODE":229.62,"ARG_OF_PERICENTER":53.3122,"MEAN_ANOMALY":306.9025,"EPHEMERIS_TYPE":0,"CLASSIFICATION_TYPE":"U","NORAD_CAT_ID":67783,"ELEMENT_SET_NO":999,"REV_AT_EPOCH":476,"BSTAR":0.00082438144,"MEAN_MOTION_DOT":0.00027339,"MEAN_MOTION_DDOT":0},{"OBJECT_NAME":"KUIPER-00225","OBJECT_ID":"2026-030W","EPOCH":"2026-03-07T14:41:49.436736","MEAN_MOTION":15.35819655,"ECCENTRICITY":0.00043525,"INCLINATION":51.8808,"RA_OF_ASC_NODE":229.1463,"ARG_OF_PERICENTER":34.2503,"MEAN_ANOMALY":325.8763,"EPHEMERIS_TYPE":0,"CLASSIFICATION_TYPE":"U","NORAD_CAT_ID":67784,"ELEMENT_SET_NO":999,"REV_AT_EPOCH":477,"BSTAR":0.00081109937,"MEAN_MOTION_DOT":0.00028433,"MEAN_MOTION_DDOT":0},{"OBJECT_NAME":"KUIPER-00226","OBJECT_ID":"2026-030X","EPOCH":"2026-03-07T14:27:32.846400","MEAN_MOTION":15.31096254,"ECCENTRICITY":0.00192704,"INCLINATION":51.881,"RA_OF_ASC_NODE":229.8125,"ARG_OF_PERICENTER":67.2152,"MEAN_ANOMALY":293.0865,"EPHEMERIS_TYPE":0,"CLASSIFICATION_TYPE":"U","NORAD_CAT_ID":67785,"ELEMENT_SET_NO":999,"REV_AT_EPOCH":476,"BSTAR":0.00059075543,"MEAN_MOTION_DOT":0.00017776,"MEAN_MOTION_DDOT":0},{"OBJECT_NAME":"KUIPER-00259","OBJECT_ID":"2026-030Y","EPOCH":"2026-03-07T14:59:21.434496","MEAN_MOTION":15.3500159,"ECCENTRICITY":0.00085044,"INCLINATION":51.8811,"RA_OF_ASC_NODE":229.2241,"ARG_OF_PERICENTER":44.0537,"MEAN_ANOMALY":316.1126,"EPHEMERIS_TYPE":0,"CLASSIFICATION_TYPE":"U","NORAD_CAT_ID":67786,"ELEMENT_SET_NO":999,"REV_AT_EPOCH":477,"BSTAR":0.0010793504,"MEAN_MOTION_DOT":0.00037048,"MEAN_MOTION_DDOT":0},{"OBJECT_NAME":"KUIPER-00260","OBJECT_ID":"2026-030Z","EPOCH":"2026-03-07T14:29:36.663648","MEAN_MOTION":15.36394304,"ECCENTRICITY":0.00010944,"INCLINATION":51.8794,"RA_OF_ASC_NODE":229.0902,"ARG_OF_PERICENTER":52.4358,"MEAN_ANOMALY":307.6728,"EPHEMERIS_TYPE":0,"CLASSIFICATION_TYPE":"U","NORAD_CAT_ID":67787,"ELEMENT_SET_NO":999,"REV_AT_EPOCH":468,"BSTAR":0.00090943109,"MEAN_MOTION_DOT":0.00032538,"MEAN_MOTION_DDOT":0},{"OBJECT_NAME":"KUIPER-00262","OBJECT_ID":"2026-030AA","EPOCH":"2026-03-07T14:24:00.884736","MEAN_MOTION":15.36584579,"ECCENTRICITY":2.902e-5,"INCLINATION":51.8808,"RA_OF_ASC_NODE":229.0683,"ARG_OF_PERICENTER":115.6166,"MEAN_ANOMALY":244.485,"EPHEMERIS_TYPE":0,"CLASSIFICATION_TYPE":"U","NORAD_CAT_ID":67788,"ELEMENT_SET_NO":999,"REV_AT_EPOCH":477,"BSTAR":0.00093239881,"MEAN_MOTION_DOT":0.00033581,"MEAN_MOTION_DDOT":0},{"OBJECT_NAME":"KUIPER-00266","OBJECT_ID":"2026-030AB","EPOCH":"2026-03-07T14:34:34.438656","MEAN_MOTION":15.30929633,"ECCENTRICITY":0.00224662,"INCLINATION":51.8801,"RA_OF_ASC_NODE":229.8412,"ARG_OF_PERICENTER":67.2082,"MEAN_ANOMALY":293.1273,"EPHEMERIS_TYPE":0,"CLASSIFICATION_TYPE":"U","NORAD_CAT_ID":67789,"ELEMENT_SET_NO":999,"REV_AT_EPOCH":476,"BSTAR":0.0014299865,"MEAN_MOTION_DOT":0.00043573,"MEAN_MOTION_DDOT":0},{"OBJECT_NAME":"KUIPER-00268","OBJECT_ID":"2026-030AC","EPOCH":"2026-03-07T14:37:59.463264","MEAN_MOTION":15.3591988,"ECCENTRICITY":0.00026307,"INCLINATION":51.8841,"RA_OF_ASC_NODE":229.1375,"ARG_OF_PERICENTER":39.9895,"MEAN_ANOMALY":320.1285,"EPHEMERIS_TYPE":0,"CLASSIFICATION_TYPE":"U","NORAD_CAT_ID":67790,"ELEMENT_SET_NO":999,"REV_AT_EPOCH":477,"BSTAR":0.00080512236,"MEAN_MOTION_DOT":0.00028307,"MEAN_MOTION_DDOT":0},{"OBJECT_NAME":"KUIPER-00270","OBJECT_ID":"2026-030AD","EPOCH":"2026-03-07T15:08:01.594464","MEAN_MOTION":15.34576716,"ECCENTRICITY":0.00105058,"INCLINATION":51.8816,"RA_OF_ASC_NODE":229.2621,"ARG_OF_PERICENTER":50.0015,"MEAN_ANOMALY":310.1891,"EPHEMERIS_TYPE":0,"CLASSIFICATION_TYPE":"U","NORAD_CAT_ID":67791,"ELEMENT_SET_NO":999,"REV_AT_EPOCH":477,"BSTAR":0.0011070107,"MEAN_MOTION_DOT":0.00037516,"MEAN_MOTION_DDOT":0},{"OBJECT_NAME":"KUIPER-00274","OBJECT_ID":"2026-030AE","EPOCH":"2026-03-07T14:19:18.860448","MEAN_MOTION":15.3064857,"ECCENTRICITY":0.00184596,"INCLINATION":51.8822,"RA_OF_ASC_NODE":229.7802,"ARG_OF_PERICENTER":65.3979,"MEAN_ANOMALY":294.8926,"EPHEMERIS_TYPE":0,"CLASSIFICATION_TYPE":"U","NORAD_CAT_ID":67792,"ELEMENT_SET_NO":999,"REV_AT_EPOCH":476,"BSTAR":-0.0019992952,"MEAN_MOTION_DOT":-0.00060323,"MEAN_MOTION_DDOT":0},{"OBJECT_NAME":"KUIPER-00275","OBJECT_ID":"2026-030AF","EPOCH":"2026-03-07T15:04:06.446496","MEAN_MOTION":15.34652002,"ECCENTRICITY":0.00091275,"INCLINATION":51.8848,"RA_OF_ASC_NODE":229.2547,"ARG_OF_PERICENTER":47.8306,"MEAN_ANOMALY":312.3454,"EPHEMERIS_TYPE":0,"CLASSIFICATION_TYPE":"U","NORAD_CAT_ID":67793,"ELEMENT_SET_NO":999,"REV_AT_EPOCH":477,"BSTAR":0.0011281135,"MEAN_MOTION_DOT":0.00038319,"MEAN_MOTION_DDOT":0},{"OBJECT_NAME":"KUIPER-00276","OBJECT_ID":"2026-030AG","EPOCH":"2026-03-07T14:24:56.738880","MEAN_MOTION":15.3053462,"ECCENTRICITY":0.00192868,"INCLINATION":51.8818,"RA_OF_ASC_NODE":229.8049,"ARG_OF_PERICENTER":61.7957,"MEAN_ANOMALY":298.4971,"EPHEMERIS_TYPE":0,"CLASSIFICATION_TYPE":"U","NORAD_CAT_ID":67794,"ELEMENT_SET_NO":999,"REV_AT_EPOCH":476,"BSTAR":0.0018838269,"MEAN_MOTION_DOT":0.00056799,"MEAN_MOTION_DDOT":0},{"OBJECT_NAME":"KUIPER-00279","OBJECT_ID":"2026-030AH","EPOCH":"2026-03-07T14:52:56.611488","MEAN_MOTION":15.35314547,"ECCENTRICITY":0.00065718,"INCLINATION":51.88,"RA_OF_ASC_NODE":229.1926,"ARG_OF_PERICENTER":42.4816,"MEAN_ANOMALY":317.6678,"EPHEMERIS_TYPE":0,"CLASSIFICATION_TYPE":"U","NORAD_CAT_ID":67795,"ELEMENT_SET_NO":999,"REV_AT_EPOCH":477,"BSTAR":0.00075618601,"MEAN_MOTION_DOT":0.00026053,"MEAN_MOTION_DDOT":0}]
