KUIPER-00223            
1 67783U 26030V   26066.57162003  .00027339  00000+0  82438-3 0  9997
2 67783  51.8838 229.6200 0012658  53.3122 306.9025 15.34029750  4763
KUIPER-00225            
1 67784U 26030W   26066.61237774  .00028433  00000+0  81110-3 0  9993
2 67784  51.8808 229.1463 0004352  34.2503 325.8763 15.35819655  4772
KUIPER-00226            
1 67785U 26030X   26066.60246350  .00017776  00000+0  59076-3 0  9997
2 67785  51.8810 229.8125 0019270  67.2152 293.0865 15.31096254  4765
KUIPER-00259            
1 67786U 26030Y   26066.62455364  .00037048  00000+0  10794-2 0  9994
2 67786  51.8811 229.2241 0008504  44.0537 316.1126 15.35001590  4779
KUIPER-00260            
1 67787U 26030Z   26066.60389657  .00032538  00000+0  90943-3 0  9998
2 67787  51.8794 229.0902 0001094  52.4358 307.6728 15.36394304  4685
KUIPER-00262            
1 67788U 26030AA  26066.60001024  .00033581  00000+0  93240-3 0  9990
2 67788  51.8808 229.0683 0000290 115.6166 244.4850 15.36584579  4773
KUIPER-00266            
1 67789U 26030AB  26066.60734304  .00043573  00000+0  14300-2 0  9996
2 67789  51.8801 229.8412 0022466  67.2082 293.1273 15.30929633  4760
KUIPER-00268            
1 67790U 26030AC  26066.60971601  .00028307  00000+0  80512-3 0  9998
2 67790  51.8841 229.1375 0002630  39.9895 320.1285 15.35919880  4779
KUIPER-00270            
1 67791U 26030AD  26066.63057401  .00037516  00000+0  11070-2 0  9999
2 67791  51.8816 229.2621 0010505  50.0015 310.1891 15.34576716  4773
KUIPER-00274            
1 67792U 26030AE  26066.59674607 -.00060323  00000+0 -19993-2 0  9994
2 67792  51.8822 229.7802 0018459  65.3979 294.8926 15.30648570  4761
KUIPER-00275            
1 67793U 26030AF  26066.62785239  .00038319  00000+0  11281-2 0  9993
2 67793  51.8848 229.2547 0009127  47.8306 312.3454 15.34652002  4774
KUIPER-00276            
1 67794U 26030AG  26066.60065670  .00056799  00000+0  18838-2 0  9999
2 67794  51.8818 229.8049 0019286  61.7957 298.4971 15.30534620  4767
KUIPER-00279            
1 67795U 26030AH  26066.62009967  .00026053  00000+0  75619-3 0  9990
2 67795  51.8800 229.1926 0006571  42.4816 317.6678 15.35314547  4777
